[{"OBJECT_NAME":"STARLINK-30904","OBJECT_ID":"2023-177P","EPOCH":"2025-11-27T14:00:07.481952","MEAN_MOTION":15.02535187,"ECCENTRICITY":9.962e-5,"INCLINATION":43.0021,"RA_OF_ASC_NODE":184.925,"ARG_OF_PERICENTER":261.8625,"MEAN_ANOMALY":98.2104,"EPHEMERIS_TYPE":0,"CLASSIFICATION_TYPE":"U","NORAD_CAT_ID":58364,"ELEMENT_SET_NO":999,"REV_AT_EPOCH":11287,"BSTAR":1.8812434e-5,"MEAN_MOTION_DOT":5.1e-7,"MEAN_MOTION_DDOT":0},{"OBJECT_NAME":"STARLINK-30918","OBJECT_ID":"2023-177Q","EPOCH":"2025-11-27T21:41:41.920224","MEAN_MOTION":15.02534002,"ECCENTRICITY":0.0001167,"INCLINATION":43.0026,"RA_OF_ASC_NODE":184.7428,"ARG_OF_PERICENTER":273.2354,"MEAN_ANOMALY":86.8354,"EPHEMERIS_TYPE":0,"CLASSIFICATION_TYPE":"U","NORAD_CAT_ID":58365,"ELEMENT_SET_NO":999,"REV_AT_EPOCH":11290,"BSTAR":0.00013961,"MEAN_MOTION_DOT":1.683e-5,"MEAN_MOTION_DDOT":0},{"OBJECT_NAME":"STARLINK-30892","OBJECT_ID":"2023-177R","EPOCH":"2025-11-27T21:46:29.919072","MEAN_MOTION":15.02532423,"ECCENTRICITY":0.000115,"INCLINATION":43.0025,"RA_OF_ASC_NODE":184.7681,"ARG_OF_PERICENTER":263.3451,"MEAN_ANOMALY":96.726,"EPHEMERIS_TYPE":0,"CLASSIFICATION_TYPE":"U","NORAD_CAT_ID":58366,"ELEMENT_SET_NO":999,"REV_AT_EPOCH":11291,"BSTAR":2.5321e-5,"MEAN_MOTION_DOT":1.38e-6,"MEAN_MOTION_DDOT":0},{"OBJECT_NAME":"STARLINK-30891","OBJECT_ID":"2023-177S","EPOCH":"2025-11-28T00:48:21.623040","MEAN_MOTION":15.02536192,"ECCENTRICITY":6.44e-5,"INCLINATION":43.0029,"RA_OF_ASC_NODE":183.994,"ARG_OF_PERICENTER":222.3914,"MEAN_ANOMALY":137.6878,"EPHEMERIS_TYPE":0,"CLASSIFICATION_TYPE":"U","NORAD_CAT_ID":58367,"ELEMENT_SET_NO":999,"REV_AT_EPOCH":11286,"BSTAR":8.7735e-5,"MEAN_MOTION_DOT":9.82e-6,"MEAN_MOTION_DDOT":0},{"OBJECT_NAME":"STARLINK-30889","OBJECT_ID":"2023-177T","EPOCH":"2025-11-28T00:51:33.571008","MEAN_MOTION":15.02533322,"ECCENTRICITY":6.93e-5,"INCLINATION":43.0014,"RA_OF_ASC_NODE":184.0111,"ARG_OF_PERICENTER":259.9094,"MEAN_ANOMALY":100.167,"EPHEMERIS_TYPE":0,"CLASSIFICATION_TYPE":"U","NORAD_CAT_ID":58368,"ELEMENT_SET_NO":999,"REV_AT_EPOCH":11292,"BSTAR":2.7885e-5,"MEAN_MOTION_DOT":1.73e-6,"MEAN_MOTION_DDOT":0},{"OBJECT_NAME":"STARLINK-30870","OBJECT_ID":"2023-177U","EPOCH":"2025-11-28T00:45:09.942912","MEAN_MOTION":15.0253374,"ECCENTRICITY":7.81e-5,"INCLINATION":43.0013,"RA_OF_ASC_NODE":183.9778,"ARG_OF_PERICENTER":233.6354,"MEAN_ANOMALY":126.4417,"EPHEMERIS_TYPE":0,"CLASSIFICATION_TYPE":"U","NORAD_CAT_ID":58369,"ELEMENT_SET_NO":999,"REV_AT_EPOCH":11292,"BSTAR":5.6252e-5,"MEAN_MOTION_DOT":5.56e-6,"MEAN_MOTION_DDOT":0},{"OBJECT_NAME":"STARLINK-30888","OBJECT_ID":"2023-177V","EPOCH":"2025-11-27T22:28:03.334080","MEAN_MOTION":15.02531471,"ECCENTRICITY":0.0001241,"INCLINATION":43.0015,"RA_OF_ASC_NODE":184.9715,"ARG_OF_PERICENTER":271.9386,"MEAN_ANOMALY":88.1314,"EPHEMERIS_TYPE":0,"CLASSIFICATION_TYPE":"U","NORAD_CAT_ID":58370,"ELEMENT_SET_NO":999,"REV_AT_EPOCH":11291,"BSTAR":-9.8276e-5,"MEAN_MOTION_DOT":-1.531e-5,"MEAN_MOTION_DDOT":0},{"OBJECT_NAME":"STARLINK-30859","OBJECT_ID":"2023-177W","EPOCH":"2025-11-27T22:13:39.599328","MEAN_MOTION":15.02536429,"ECCENTRICITY":0.0001041,"INCLINATION":43.0031,"RA_OF_ASC_NODE":184.8754,"ARG_OF_PERICENTER":269.1432,"MEAN_ANOMALY":90.9291,"EPHEMERIS_TYPE":0,"CLASSIFICATION_TYPE":"U","NORAD_CAT_ID":58371,"ELEMENT_SET_NO":999,"REV_AT_EPOCH":11291,"BSTAR":5.6966e-5,"MEAN_MOTION_DOT":5.66e-6,"MEAN_MOTION_DDOT":0},{"OBJECT_NAME":"STARLINK-30884","OBJECT_ID":"2023-177X","EPOCH":"2025-11-28T00:37:10.135200","MEAN_MOTION":15.0253809,"ECCENTRICITY":0.0001018,"INCLINATION":43.0013,"RA_OF_ASC_NODE":183.9346,"ARG_OF_PERICENTER":255.2687,"MEAN_ANOMALY":104.8043,"EPHEMERIS_TYPE":0,"CLASSIFICATION_TYPE":"U","NORAD_CAT_ID":58372,"ELEMENT_SET_NO":999,"REV_AT_EPOCH":11292,"BSTAR":0.00013391,"MEAN_MOTION_DOT":1.606e-5,"MEAN_MOTION_DDOT":0},{"OBJECT_NAME":"STARLINK-30852","OBJECT_ID":"2023-177Y","EPOCH":"2025-11-27T15:42:45.260928","MEAN_MOTION":15.02535875,"ECCENTRICITY":9.286e-5,"INCLINATION":43.0013,"RA_OF_ASC_NODE":186.28,"ARG_OF_PERICENTER":249.4881,"MEAN_ANOMALY":110.5862,"EPHEMERIS_TYPE":0,"CLASSIFICATION_TYPE":"U","NORAD_CAT_ID":58373,"ELEMENT_SET_NO":999,"REV_AT_EPOCH":11286,"BSTAR":2.5522306e-5,"MEAN_MOTION_DOT":1.41e-6,"MEAN_MOTION_DDOT":0},{"OBJECT_NAME":"STARLINK-30911","OBJECT_ID":"2023-178A","EPOCH":"2025-11-28T02:59:14.974368","MEAN_MOTION":15.30191426,"ECCENTRICITY":0.000106,"INCLINATION":53.1616,"RA_OF_ASC_NODE":112.664,"ARG_OF_PERICENTER":90.2235,"MEAN_ANOMALY":269.8887,"EPHEMERIS_TYPE":0,"CLASSIFICATION_TYPE":"U","NORAD_CAT_ID":58374,"ELEMENT_SET_NO":999,"REV_AT_EPOCH":11433,"BSTAR":3.2391e-5,"MEAN_MOTION_DOT":6.0e-6,"MEAN_MOTION_DDOT":0},{"OBJECT_NAME":"STARLINK-30894","OBJECT_ID":"2023-178B","EPOCH":"2025-11-28T03:14:26.863296","MEAN_MOTION":15.30194789,"ECCENTRICITY":0.0001275,"INCLINATION":53.1606,"RA_OF_ASC_NODE":112.7385,"ARG_OF_PERICENTER":75.1963,"MEAN_ANOMALY":284.9179,"EPHEMERIS_TYPE":0,"CLASSIFICATION_TYPE":"U","NORAD_CAT_ID":58375,"ELEMENT_SET_NO":999,"REV_AT_EPOCH":11427,"BSTAR":1.7881e-5,"MEAN_MOTION_DOT":1.7e-6,"MEAN_MOTION_DDOT":0},{"OBJECT_NAME":"STARLINK-30910","OBJECT_ID":"2023-178C","EPOCH":"2025-11-27T16:20:39.456672","MEAN_MOTION":15.30185194,"ECCENTRICITY":0.00011802,"INCLINATION":53.1594,"RA_OF_ASC_NODE":114.8785,"ARG_OF_PERICENTER":81.7227,"MEAN_ANOMALY":278.3907,"EPHEMERIS_TYPE":0,"CLASSIFICATION_TYPE":"U","NORAD_CAT_ID":58376,"ELEMENT_SET_NO":999,"REV_AT_EPOCH":11427,"BSTAR":3.3563758e-5,"MEAN_MOTION_DOT":6.35e-6,"MEAN_MOTION_DDOT":0},{"OBJECT_NAME":"STARLINK-30914","OBJECT_ID":"2023-178D","EPOCH":"2025-11-28T03:02:17.458080","MEAN_MOTION":15.30189441,"ECCENTRICITY":0.0001143,"INCLINATION":53.1606,"RA_OF_ASC_NODE":112.6694,"ARG_OF_PERICENTER":86.9416,"MEAN_ANOMALY":273.1715,"EPHEMERIS_TYPE":0,"CLASSIFICATION_TYPE":"U","NORAD_CAT_ID":58377,"ELEMENT_SET_NO":999,"REV_AT_EPOCH":11434,"BSTAR":2.1193e-5,"MEAN_MOTION_DOT":2.68e-6,"MEAN_MOTION_DDOT":0},{"OBJECT_NAME":"STARLINK-30920","OBJECT_ID":"2023-178E","EPOCH":"2025-11-27T15:13:08.370624","MEAN_MOTION":15.30194752,"ECCENTRICITY":0.00011616,"INCLINATION":53.1605,"RA_OF_ASC_NODE":102.5455,"ARG_OF_PERICENTER":78.6858,"MEAN_ANOMALY":281.4273,"EPHEMERIS_TYPE":0,"CLASSIFICATION_TYPE":"U","NORAD_CAT_ID":58378,"ELEMENT_SET_NO":999,"REV_AT_EPOCH":11444,"BSTAR":4.9887118e-5,"MEAN_MOTION_DOT":1.118e-5,"MEAN_MOTION_DDOT":0},{"OBJECT_NAME":"STARLINK-30882","OBJECT_ID":"2023-178F","EPOCH":"2025-11-27T16:25:11.385120","MEAN_MOTION":15.30196078,"ECCENTRICITY":9.913e-5,"INCLINATION":53.1599,"RA_OF_ASC_NODE":114.8966,"ARG_OF_PERICENTER":78.8885,"MEAN_ANOMALY":281.2227,"EPHEMERIS_TYPE":0,"CLASSIFICATION_TYPE":"U","NORAD_CAT_ID":58379,"ELEMENT_SET_NO":999,"REV_AT_EPOCH":11427,"BSTAR":7.1284365e-5,"MEAN_MOTION_DOT":1.753e-5,"MEAN_MOTION_DDOT":0},{"OBJECT_NAME":"STARLINK-30915","OBJECT_ID":"2023-178G","EPOCH":"2025-11-28T04:09:30.468384","MEAN_MOTION":15.30201338,"ECCENTRICITY":0.0001007,"INCLINATION":53.1602,"RA_OF_ASC_NODE":22.8702,"ARG_OF_PERICENTER":105.372,"MEAN_ANOMALY":254.7392,"EPHEMERIS_TYPE":0,"CLASSIFICATION_TYPE":"U","NORAD_CAT_ID":58380,"ELEMENT_SET_NO":999,"REV_AT_EPOCH":11557,"BSTAR":1.3971e-5,"MEAN_MOTION_DOT":5.5e-7,"MEAN_MOTION_DDOT":0},{"OBJECT_NAME":"STARLINK-30923","OBJECT_ID":"2023-178H","EPOCH":"2025-11-28T00:00:02.000160","MEAN_MOTION":15.30184388,"ECCENTRICITY":0.0001461,"INCLINATION":53.1571,"RA_OF_ASC_NODE":113.4933,"ARG_OF_PERICENTER":88.8277,"MEAN_ANOMALY":159.9594,"EPHEMERIS_TYPE":0,"CLASSIFICATION_TYPE":"U","NORAD_CAT_ID":58381,"ELEMENT_SET_NO":999,"REV_AT_EPOCH":572,"BSTAR":-0.00033059,"MEAN_MOTION_DOT":-0.00010132,"MEAN_MOTION_DDOT":0},{"OBJECT_NAME":"STARLINK-30927","OBJECT_ID":"2023-178J","EPOCH":"2025-11-28T02:22:56.544384","MEAN_MOTION":15.3019754,"ECCENTRICITY":9.7e-5,"INCLINATION":53.1584,"RA_OF_ASC_NODE":113.2224,"ARG_OF_PERICENTER":92.7555,"MEAN_ANOMALY":267.3556,"EPHEMERIS_TYPE":0,"CLASSIFICATION_TYPE":"U","NORAD_CAT_ID":58382,"ELEMENT_SET_NO":999,"REV_AT_EPOCH":11431,"BSTAR":7.8473e-5,"MEAN_MOTION_DOT":1.966e-5,"MEAN_MOTION_DDOT":0},{"OBJECT_NAME":"STARLINK-30921","OBJECT_ID":"2023-178K","EPOCH":"2025-11-27T16:34:18.595200","MEAN_MOTION":15.30206434,"ECCENTRICITY":0.00011048,"INCLINATION":53.1605,"RA_OF_ASC_NODE":114.9416,"ARG_OF_PERICENTER":89.1344,"MEAN_ANOMALY":270.9783,"EPHEMERIS_TYPE":0,"CLASSIFICATION_TYPE":"U","NORAD_CAT_ID":58383,"ELEMENT_SET_NO":999,"REV_AT_EPOCH":11425,"BSTAR":2.114141e-6,"MEAN_MOTION_DOT":-2.96e-6,"MEAN_MOTION_DDOT":0},{"OBJECT_NAME":"STARLINK-30825","OBJECT_ID":"2023-178L","EPOCH":"2025-11-27T16:11:30.185088","MEAN_MOTION":15.30205214,"ECCENTRICITY":0.00010977,"INCLINATION":53.1608,"RA_OF_ASC_NODE":114.8117,"ARG_OF_PERICENTER":77.8646,"MEAN_ANOMALY":282.2478,"EPHEMERIS_TYPE":0,"CLASSIFICATION_TYPE":"U","NORAD_CAT_ID":58384,"ELEMENT_SET_NO":999,"REV_AT_EPOCH":11427,"BSTAR":-8.1804027e-5,"MEAN_MOTION_DOT":-2.781e-5,"MEAN_MOTION_DDOT":0},{"OBJECT_NAME":"STARLINK-30930","OBJECT_ID":"2023-178M","EPOCH":"2025-11-28T02:54:41.420736","MEAN_MOTION":15.30194142,"ECCENTRICITY":0.0001196,"INCLINATION":53.1611,"RA_OF_ASC_NODE":112.6425,"ARG_OF_PERICENTER":92.0787,"MEAN_ANOMALY":268.035,"EPHEMERIS_TYPE":0,"CLASSIFICATION_TYPE":"U","NORAD_CAT_ID":58385,"ELEMENT_SET_NO":999,"REV_AT_EPOCH":11421,"BSTAR":3.6709e-5,"MEAN_MOTION_DOT":7.28e-6,"MEAN_MOTION_DDOT":0},{"OBJECT_NAME":"STARLINK-30929","OBJECT_ID":"2023-178N","EPOCH":"2025-11-27T17:25:55.942752","MEAN_MOTION":15.30189416,"ECCENTRICITY":0.00012009,"INCLINATION":53.162,"RA_OF_ASC_NODE":114.9542,"ARG_OF_PERICENTER":89.5893,"MEAN_ANOMALY":270.5245,"EPHEMERIS_TYPE":0,"CLASSIFICATION_TYPE":"U","NORAD_CAT_ID":58386,"ELEMENT_SET_NO":999,"REV_AT_EPOCH":11425,"BSTAR":3.2805006e-5,"MEAN_MOTION_DOT":6.12e-6,"MEAN_MOTION_DDOT":0}]
